{
    "links": {
        "self": "http://www.neowsapp.com/rest/v1/neo/3841618?api_key=iIulBulltgU6a56xZRHN4H3l9WmuAYTsLGpBGhQ2"
    },
    "id": "3841618",
    "neo_reference_id": "3841618",
    "name": "(2019 HJ3)",
    "designation": "2019 HJ3",
    "nasa_jpl_url": "http://ssd.jpl.nasa.gov/sbdb.cgi?sstr=3841618",
    "absolute_magnitude_h": 24.3,
    "estimated_diameter": {
        "kilometers": {
            "estimated_diameter_min": 0.0366906138,
            "estimated_diameter_max": 0.0820427065
        },
        "meters": {
            "estimated_diameter_min": 36.6906137531,
            "estimated_diameter_max": 82.0427064882
        },
        "miles": {
            "estimated_diameter_min": 0.0227984834,
            "estimated_diameter_max": 0.0509789586
        },
        "feet": {
            "estimated_diameter_min": 120.3760332259,
            "estimated_diameter_max": 269.1689931548
        }
    },
    "is_potentially_hazardous_asteroid": false,
    "close_approach_data": [
        {
            "close_approach_date": "2015-04-19",
            "close_approach_date_full": "2015-Apr-19 05:26",
            "epoch_date_close_approach": 1429421160000,
            "relative_velocity": {
                "kilometers_per_second": "12.610049937",
                "kilometers_per_hour": "45396.1797730492",
                "miles_per_hour": "28207.4207039816"
            },
            "miss_distance": {
                "astronomical": "0.373526592",
                "lunar": "145.301844288",
                "kilometers": "55878782.55155904",
                "miles": "34721465.421793152"
            },
            "orbiting_body": "Earth"
        },
        {
            "close_approach_date": "2019-04-26",
            "close_approach_date_full": "2019-Apr-26 16:56",
            "epoch_date_close_approach": 1556297760000,
            "relative_velocity": {
                "kilometers_per_second": "11.1397679732",
                "kilometers_per_hour": "40103.1647036878",
                "miles_per_hour": "24918.5469793553"
            },
            "miss_distance": {
                "astronomical": "0.106384143",
                "lunar": "41.383431627",
                "kilometers": "15914841.19457541",
                "miles": "9889023.758184258"
            },
            "orbiting_body": "Earth"
        },
        {
            "close_approach_date": "2023-04-26",
            "close_approach_date_full": "2023-Apr-26 16:12",
            "epoch_date_close_approach": 1682525520000,
            "relative_velocity": {
                "kilometers_per_second": "14.2518753803",
                "kilometers_per_hour": "51306.7513691318",
                "miles_per_hour": "31880.0200382253"
            },
            "miss_distance": {
                "astronomical": "0.2994683851",
                "lunar": "116.4932018039",
                "kilometers": "44799832.543299737",
                "miles": "27837325.1084888906"
            },
            "orbiting_body": "Earth"
        },
        {
            "close_approach_date": "2023-10-04",
            "close_approach_date_full": "2023-Oct-04 15:22",
            "epoch_date_close_approach": 1696432920000,
            "relative_velocity": {
                "kilometers_per_second": "11.4318274309",
                "kilometers_per_hour": "41154.5787510949",
                "miles_per_hour": "25571.8547800901"
            },
            "miss_distance": {
                "astronomical": "0.3224256823",
                "lunar": "125.4235904147",
                "kilometers": "48234195.305376701",
                "miles": "29971339.1732964338"
            },
            "orbiting_body": "Earth"
        }
    ],
    "orbital_data": {
        "orbit_id": "3",
        "orbit_determination_date": "2019-05-06 07:13:22",
        "first_observation_date": "2019-04-25",
        "last_observation_date": "2019-05-05",
        "data_arc_in_days": 10,
        "observations_used": 51,
        "orbit_uncertainty": "8",
        "minimum_orbit_intersection": ".098403",
        "jupiter_tisserand_invariant": "5.223",
        "epoch_osculation": "2458600.5",
        "eccentricity": ".09320243402374205",
        "semi_major_axis": "1.200365096296319",
        "inclination": "21.70943184345594",
        "ascending_node_longitude": "213.803041617586",
        "orbital_period": "480.3618015450014",
        "perihelion_distance": "1.088488147604359",
        "perihelion_argument": "35.05713836821258",
        "aphelion_distance": "1.31224204498828",
        "perihelion_time": "2458639.205608074171",
        "mean_anomaly": "330.9926583215293",
        "mean_motion": ".7494351108729331",
        "equinox": "J2000",
        "orbit_class": {
            "orbit_class_type": "AMO",
            "orbit_class_description": "Near-Earth asteroid orbits similar to that of 1221 Amor",
            "orbit_class_range": "1.017 AU < q (perihelion) < 1.3 AU"
        }
    },
    "is_sentry_object": false
}